{
  "type": "FeatureCollection",
  "features": [
    {
      "type": "Feature",
      "properties": {
        "tier": "walk30",
        "label": "\u2264 30 min a piedi",
        "mode": "walking",
        "minutes": 30,
        "source": "approx",
        "approx": true
      },
      "geometry": {
        "type": "Polygon",
        "coordinates": [
          [
            [
              -73.9897,
              40.757737
            ],
            [
              -73.988496,
              40.757702
            ],
            [
              -73.987298,
              40.757595
            ],
            [
              -73.98611,
              40.757418
            ],
            [
              -73.984937,
              40.75717
            ],
            [
              -73.983785,
              40.756854
            ],
            [
              -73.982658,
              40.756471
            ],
            [
              -73.981561,
              40.756021
            ],
            [
              -73.980499,
              40.755508
            ],
            [
              -73.979477,
              40.754933
            ],
            [
              -73.978498,
              40.754299
            ],
            [
              -73.977567,
              40.753608
            ],
            [
              -73.976688,
              40.752864
            ],
            [
              -73.975865,
              40.752069
            ],
            [
              -73.975102,
              40.751227
            ],
            [
              -73.974401,
              40.750342
            ],
            [
              -73.973765,
              40.749418
            ],
            [
              -73.973198,
              40.748457
            ],
            [
              -73.972701,
              40.747466
            ],
            [
              -73.972277,
              40.746447
            ],
            [
              -73.971928,
              40.745405
            ],
            [
              -73.971655,
              40.744344
            ],
            [
              -73.971459,
              40.74327
            ],
            [
              -73.971341,
              40.742187
            ],
            [
              -73.971302,
              40.741099
            ],
            [
              -73.971342,
              40.74001
            ],
            [
              -73.97146,
              40.738927
            ],
            [
              -73.971656,
              40.737853
            ],
            [
              -73.97193,
              40.736793
            ],
            [
              -73.97228,
              40.735751
            ],
            [
              -73.972704,
              40.734732
            ],
            [
              -73.973201,
              40.73374
            ],
            [
              -73.973769,
              40.73278
            ],
            [
              -73.974405,
              40.731856
            ],
            [
              -73.975106,
              40.730971
            ],
            [
              -73.97587,
              40.730129
            ],
            [
              -73.976693,
              40.729335
            ],
            [
              -73.977572,
              40.728591
            ],
            [
              -73.978502,
              40.7279
            ],
            [
              -73.979481,
              40.727266
            ],
            [
              -73.980503,
              40.726691
            ],
            [
              -73.981565,
              40.726178
            ],
            [
              -73.982661,
              40.725729
            ],
            [
              -73.983788,
              40.725345
            ],
            [
              -73.984939,
              40.725029
            ],
            [
              -73.986112,
              40.724782
            ],
            [
              -73.987299,
              40.724605
            ],
            [
              -73.988497,
              40.724498
            ],
            [
              -73.9897,
              40.724463
            ],
            [
              -73.990903,
              40.724498
            ],
            [
              -73.992101,
              40.724605
            ],
            [
              -73.993288,
              40.724782
            ],
            [
              -73.994461,
              40.725029
            ],
            [
              -73.995612,
              40.725345
            ],
            [
              -73.996739,
              40.725729
            ],
            [
              -73.997835,
              40.726178
            ],
            [
              -73.998897,
              40.726691
            ],
            [
              -73.999919,
              40.727266
            ],
            [
              -74.000898,
              40.7279
            ],
            [
              -74.001828,
              40.728591
            ],
            [
              -74.002707,
              40.729335
            ],
            [
              -74.00353,
              40.730129
            ],
            [
              -74.004294,
              40.730971
            ],
            [
              -74.004995,
              40.731856
            ],
            [
              -74.005631,
              40.73278
            ],
            [
              -74.006199,
              40.73374
            ],
            [
              -74.006696,
              40.734732
            ],
            [
              -74.00712,
              40.735751
            ],
            [
              -74.00747,
              40.736793
            ],
            [
              -74.007744,
              40.737853
            ],
            [
              -74.00794,
              40.738927
            ],
            [
              -74.008058,
              40.74001
            ],
            [
              -74.008098,
              40.741099
            ],
            [
              -74.008059,
              40.742187
            ],
            [
              -74.007941,
              40.74327
            ],
            [
              -74.007745,
              40.744344
            ],
            [
              -74.007472,
              40.745405
            ],
            [
              -74.007123,
              40.746447
            ],
            [
              -74.006699,
              40.747466
            ],
            [
              -74.006202,
              40.748457
            ],
            [
              -74.005635,
              40.749418
            ],
            [
              -74.004999,
              40.750342
            ],
            [
              -74.004298,
              40.751227
            ],
            [
              -74.003535,
              40.752069
            ],
            [
              -74.002712,
              40.752864
            ],
            [
              -74.001833,
              40.753608
            ],
            [
              -74.000902,
              40.754299
            ],
            [
              -73.999923,
              40.754933
            ],
            [
              -73.998901,
              40.755508
            ],
            [
              -73.997839,
              40.756021
            ],
            [
              -73.996742,
              40.756471
            ],
            [
              -73.995615,
              40.756854
            ],
            [
              -73.994463,
              40.75717
            ],
            [
              -73.99329,
              40.757418
            ],
            [
              -73.992102,
              40.757595
            ],
            [
              -73.990904,
              40.757702
            ],
            [
              -73.9897,
              40.757737
            ]
          ]
        ]
      }
    }
  ]
}