{
  "type": "FeatureCollection",
  "features": [
    {
      "type": "Feature",
      "properties": {
        "tier": "transit45",
        "label": "\u2264 45 min coi mezzi",
        "mode": "transit",
        "minutes": 45,
        "source": "approx",
        "approx": true
      },
      "geometry": {
        "type": "Polygon",
        "coordinates": [
          [
            [
              -73.990932,
              40.818626
            ],
            [
              -73.98689,
              40.818463
            ],
            [
              -73.982866,
              40.817972
            ],
            [
              -73.978877,
              40.817157
            ],
            [
              -73.974939,
              40.816021
            ],
            [
              -73.97107,
              40.814568
            ],
            [
              -73.967286,
              40.812805
            ],
            [
              -73.963604,
              40.81074
            ],
            [
              -73.96004,
              40.808381
            ],
            [
              -73.956608,
              40.805738
            ],
            [
              -73.953323,
              40.802824
            ],
            [
              -73.9502,
              40.799649
            ],
            [
              -73.947252,
              40.796229
            ],
            [
              -73.944491,
              40.792577
            ],
            [
              -73.94193,
              40.788709
            ],
            [
              -73.939578,
              40.784642
            ],
            [
              -73.937448,
              40.780393
            ],
            [
              -73.935546,
              40.77598
            ],
            [
              -73.933882,
              40.771423
            ],
            [
              -73.932463,
              40.766741
            ],
            [
              -73.931294,
              40.761953
            ],
            [
              -73.930381,
              40.757081
            ],
            [
              -73.929728,
              40.752146
            ],
            [
              -73.929336,
              40.747167
            ],
            [
              -73.929209,
              40.742168
            ],
            [
              -73.929346,
              40.737168
            ],
            [
              -73.929746,
              40.73219
            ],
            [
              -73.930409,
              40.727255
            ],
            [
              -73.93133,
              40.722384
            ],
            [
              -73.932506,
              40.717598
            ],
            [
              -73.933932,
              40.712917
            ],
            [
              -73.935602,
              40.708361
            ],
            [
              -73.937509,
              40.703951
            ],
            [
              -73.939644,
              40.699704
            ],
            [
              -73.941998,
              40.695639
            ],
            [
              -73.944561,
              40.691773
            ],
            [
              -73.947323,
              40.688123
            ],
            [
              -73.95027,
              40.684704
            ],
            [
              -73.953392,
              40.681532
            ],
            [
              -73.956673,
              40.678619
            ],
            [
              -73.960101,
              40.675979
            ],
            [
              -73.963661,
              40.673622
            ],
            [
              -73.967337,
              40.671558
            ],
            [
              -73.971113,
              40.669797
            ],
            [
              -73.974975,
              40.668345
            ],
            [
              -73.978904,
              40.66721
            ],
            [
              -73.982885,
              40.666395
            ],
            [
              -73.9869,
              40.665905
            ],
            [
              -73.990932,
              40.665742
            ],
            [
              -73.994964,
              40.665905
            ],
            [
              -73.998979,
              40.666395
            ],
            [
              -74.00296,
              40.66721
            ],
            [
              -74.006889,
              40.668345
            ],
            [
              -74.010751,
              40.669797
            ],
            [
              -74.014527,
              40.671558
            ],
            [
              -74.018203,
              40.673622
            ],
            [
              -74.021763,
              40.675979
            ],
            [
              -74.025191,
              40.678619
            ],
            [
              -74.028472,
              40.681532
            ],
            [
              -74.031594,
              40.684704
            ],
            [
              -74.034541,
              40.688123
            ],
            [
              -74.037303,
              40.691773
            ],
            [
              -74.039866,
              40.695639
            ],
            [
              -74.04222,
              40.699704
            ],
            [
              -74.044355,
              40.703951
            ],
            [
              -74.046262,
              40.708361
            ],
            [
              -74.047932,
              40.712917
            ],
            [
              -74.049358,
              40.717598
            ],
            [
              -74.050534,
              40.722384
            ],
            [
              -74.051455,
              40.727255
            ],
            [
              -74.052118,
              40.73219
            ],
            [
              -74.052518,
              40.737168
            ],
            [
              -74.052655,
              40.742168
            ],
            [
              -74.052528,
              40.747167
            ],
            [
              -74.052136,
              40.752146
            ],
            [
              -74.051483,
              40.757081
            ],
            [
              -74.05057,
              40.761953
            ],
            [
              -74.049401,
              40.766741
            ],
            [
              -74.047982,
              40.771423
            ],
            [
              -74.046318,
              40.77598
            ],
            [
              -74.044416,
              40.780393
            ],
            [
              -74.042286,
              40.784642
            ],
            [
              -74.039934,
              40.788709
            ],
            [
              -74.037373,
              40.792577
            ],
            [
              -74.034612,
              40.796229
            ],
            [
              -74.031664,
              40.799649
            ],
            [
              -74.028541,
              40.802824
            ],
            [
              -74.025256,
              40.805738
            ],
            [
              -74.021824,
              40.808381
            ],
            [
              -74.01826,
              40.81074
            ],
            [
              -74.014578,
              40.812805
            ],
            [
              -74.010794,
              40.814568
            ],
            [
              -74.006925,
              40.816021
            ],
            [
              -74.002987,
              40.817157
            ],
            [
              -73.998998,
              40.817972
            ],
            [
              -73.994974,
              40.818463
            ],
            [
              -73.990932,
              40.818626
            ]
          ]
        ]
      }
    }
  ]
}