{
  "type": "FeatureCollection",
  "features": [
    {
      "type": "Feature",
      "properties": {
        "tier": "transit30",
        "label": "\u2264 30 min coi mezzi",
        "mode": "transit",
        "minutes": 30,
        "source": "approx",
        "approx": true
      },
      "geometry": {
        "type": "Polygon",
        "coordinates": [
          [
            [
              -73.990932,
              40.788949
            ],
            [
              -73.988601,
              40.788849
            ],
            [
              -73.986281,
              40.788549
            ],
            [
              -73.98398,
              40.78805
            ],
            [
              -73.981709,
              40.787355
            ],
            [
              -73.979478,
              40.786466
            ],
            [
              -73.977296,
              40.785388
            ],
            [
              -73.975172,
              40.784125
            ],
            [
              -73.973116,
              40.782682
            ],
            [
              -73.971137,
              40.781066
            ],
            [
              -73.969242,
              40.779283
            ],
            [
              -73.967441,
              40.777341
            ],
            [
              -73.96574,
              40.775249
            ],
            [
              -73.964147,
              40.773015
            ],
            [
              -73.962669,
              40.770649
            ],
            [
              -73.961312,
              40.768161
            ],
            [
              -73.960082,
              40.765562
            ],
            [
              -73.958985,
              40.762863
            ],
            [
              -73.958024,
              40.760075
            ],
            [
              -73.957205,
              40.757211
            ],
            [
              -73.95653,
              40.754282
            ],
            [
              -73.956002,
              40.751302
            ],
            [
              -73.955624,
              40.748283
            ],
            [
              -73.955397,
              40.745237
            ],
            [
              -73.955323,
              40.742179
            ],
            [
              -73.9554,
              40.73912
            ],
            [
              -73.95563,
              40.736075
            ],
            [
              -73.956012,
              40.733055
            ],
            [
              -73.956542,
              40.730075
            ],
            [
              -73.95722,
              40.727147
            ],
            [
              -73.958042,
              40.724283
            ],
            [
              -73.959005,
              40.721496
            ],
            [
              -73.960104,
              40.718798
            ],
            [
              -73.961335,
              40.716199
            ],
            [
              -73.962693,
              40.713712
            ],
            [
              -73.964172,
              40.711347
            ],
            [
              -73.965765,
              40.709114
            ],
            [
              -73.967465,
              40.707022
            ],
            [
              -73.969266,
              40.705081
            ],
            [
              -73.97116,
              40.703299
            ],
            [
              -73.973138,
              40.701683
            ],
            [
              -73.975192,
              40.700241
            ],
            [
              -73.977314,
              40.698978
            ],
            [
              -73.979493,
              40.697901
            ],
            [
              -73.981722,
              40.697012
            ],
            [
              -73.98399,
              40.696318
            ],
            [
              -73.986287,
              40.695819
            ],
            [
              -73.988605,
              40.695519
            ],
            [
              -73.990932,
              40.695419
            ],
            [
              -73.993259,
              40.695519
            ],
            [
              -73.995577,
              40.695819
            ],
            [
              -73.997874,
              40.696318
            ],
            [
              -74.000142,
              40.697012
            ],
            [
              -74.002371,
              40.697901
            ],
            [
              -74.00455,
              40.698978
            ],
            [
              -74.006672,
              40.700241
            ],
            [
              -74.008726,
              40.701683
            ],
            [
              -74.010704,
              40.703299
            ],
            [
              -74.012598,
              40.705081
            ],
            [
              -74.014399,
              40.707022
            ],
            [
              -74.016099,
              40.709114
            ],
            [
              -74.017692,
              40.711347
            ],
            [
              -74.019171,
              40.713712
            ],
            [
              -74.020529,
              40.716199
            ],
            [
              -74.02176,
              40.718798
            ],
            [
              -74.022859,
              40.721496
            ],
            [
              -74.023822,
              40.724283
            ],
            [
              -74.024644,
              40.727147
            ],
            [
              -74.025322,
              40.730075
            ],
            [
              -74.025852,
              40.733055
            ],
            [
              -74.026234,
              40.736075
            ],
            [
              -74.026464,
              40.73912
            ],
            [
              -74.026541,
              40.742179
            ],
            [
              -74.026467,
              40.745237
            ],
            [
              -74.02624,
              40.748283
            ],
            [
              -74.025862,
              40.751302
            ],
            [
              -74.025334,
              40.754282
            ],
            [
              -74.024659,
              40.757211
            ],
            [
              -74.02384,
              40.760075
            ],
            [
              -74.022879,
              40.762863
            ],
            [
              -74.021782,
              40.765562
            ],
            [
              -74.020552,
              40.768161
            ],
            [
              -74.019195,
              40.770649
            ],
            [
              -74.017717,
              40.773015
            ],
            [
              -74.016124,
              40.775249
            ],
            [
              -74.014423,
              40.777341
            ],
            [
              -74.012622,
              40.779283
            ],
            [
              -74.010727,
              40.781066
            ],
            [
              -74.008748,
              40.782682
            ],
            [
              -74.006692,
              40.784125
            ],
            [
              -74.004568,
              40.785388
            ],
            [
              -74.002386,
              40.786466
            ],
            [
              -74.000155,
              40.787355
            ],
            [
              -73.997884,
              40.78805
            ],
            [
              -73.995583,
              40.788549
            ],
            [
              -73.993263,
              40.788849
            ],
            [
              -73.990932,
              40.788949
            ]
          ]
        ]
      }
    }
  ]
}